start=new Date('2022-10-22T00:00:00.000Z').valueOf();
sats=[{"EPHEMERIS_TYPE":"0","RCS_SIZE":"LARGE","APOAPSIS":"541.209","DECAY_DATE":null,"PERIOD":"95.437","MEAN_ELEMENT_THEORY":"SGP4","BSTAR":"0.00021649000000","TLE_LINE1":"1 49732U 21115J   22294.74214038  .00003160  00000-0  21649-3 0  9998","MEAN_ANOMALY":"316.4021","ARG_OF_PERICENTER":"43.7142","OBJECT_NAME":"STARLINK-3246","MEAN_MOTION_DDOT":"0.0000000000000","CLASSIFICATION_TYPE":"U","EPOCH":"2022-10-21T17:48:40.928832","FILE":"3628413","GP_ID":"215844159","RA_OF_ASC_NODE":"303.0127","OBJECT_TYPE":"PAYLOAD","REF_FRAME":"TEME","NORAD_CAT_ID":"49732","ELEMENT_SET_NO":"999","SITE":"AFETR","ECCENTRICITY":"0.00021630","INCLINATION":"53.2165","OBJECT_ID":"2021-115J","COUNTRY_CODE":"US","LAUNCH_DATE":"2021-12-02","MEAN_MOTION_DOT":"0.00003160","TIME_SYSTEM":"UTC","PERIAPSIS":"538.216","MEAN_MOTION":"15.08850813","SEMIMAJOR_AXIS":"6917.847","REV_AT_EPOCH":"4895","TLE_LINE2":"2 49732  53.2165 303.0127 0002163  43.7142 316.4021 15.08850813 48950","CENTER_NAME":"EARTH"},{"EPOCH":"2022-10-21T11:16:33.247200","CLASSIFICATION_TYPE":"U","MEAN_MOTION_DDOT":"0.0000000000000","FILE":"3627579","RA_OF_ASC_NODE":"304.2355","OBJECT_TYPE":"PAYLOAD","GP_ID":"215778610","REF_FRAME":"TEME","APOAPSIS":"541.196","DECAY_DATE":null,"EPHEMERIS_TYPE":"0","RCS_SIZE":"LARGE","MEAN_ELEMENT_THEORY":"SGP4","PERIOD":"95.438","TLE_LINE1":"1 49733U 21115K   22294.46982925  .00003763  00000-0  25443-3 0  9990","MEAN_ANOMALY":"318.8247","BSTAR":"0.00025443000000","ARG_OF_PERICENTER":"41.2903","OBJECT_NAME":"STARLINK-3252","MEAN_MOTION_DOT":"0.00003763","PERIAPSIS":"538.293","MEAN_MOTION":"15.08840369","SEMIMAJOR_AXIS":"6917.879","TIME_SYSTEM":"UTC","REV_AT_EPOCH":"4891","CENTER_NAME":"EARTH","TLE_LINE2":"2 49733  53.2173 304.2355 0002098  41.2903 318.8247 15.08840369 48918","ECCENTRICITY":"0.00020980","SITE":"AFETR","ELEMENT_SET_NO":"999","NORAD_CAT_ID":"49733","INCLINATION":"53.2173","LAUNCH_DATE":"2021-12-02","COUNTRY_CODE":"US","OBJECT_ID":"2021-115K"},{"BSTAR":"0.00022795000000","TLE_LINE1":"1 49734U 21115L   22294.35665856  .00003342  00000-0  22795-3 0  9990","MEAN_ANOMALY":"315.7278","OBJECT_NAME":"STARLINK-3238","ARG_OF_PERICENTER":"44.3885","RCS_SIZE":"LARGE","EPHEMERIS_TYPE":"0","DECAY_DATE":null,"APOAPSIS":"541.202","PERIOD":"95.437","MEAN_ELEMENT_THEORY":"SGP4","GP_ID":"215778852","RA_OF_ASC_NODE":"294.7635","OBJECT_TYPE":"PAYLOAD","REF_FRAME":"TEME","CLASSIFICATION_TYPE":"U","EPOCH":"2022-10-21T08:33:35.299584","MEAN_MOTION_DDOT":"0.0000000000000","FILE":"3627579","OBJECT_ID":"2021-115L","LAUNCH_DATE":"2021-12-02","COUNTRY_CODE":"US","ECCENTRICITY":"0.00021350","SITE":"AFETR","ELEMENT_SET_NO":"999","NORAD_CAT_ID":"49734","INCLINATION":"53.2160","REV_AT_EPOCH":"4904","TLE_LINE2":"2 49734  53.2160 294.7635 0002135  44.3885 315.7278 15.08846692 49044","CENTER_NAME":"EARTH","MEAN_MOTION_DOT":"0.00003342","TIME_SYSTEM":"UTC","SEMIMAJOR_AXIS":"6917.860","PERIAPSIS":"538.248","MEAN_MOTION":"15.08846692"},{"TIME_SYSTEM":"UTC","SEMIMAJOR_AXIS":"6917.872","PERIAPSIS":"538.358","MEAN_MOTION":"15.08842741","MEAN_MOTION_DOT":"0.00000166","TLE_LINE2":"2 49735  53.2188 304.8130 0001994  54.8053 305.3126 15.08842741 48893","CENTER_NAME":"EARTH","REV_AT_EPOCH":"4889","INCLINATION":"53.2188","ECCENTRICITY":"0.00019940","SITE":"AFETR","NORAD_CAT_ID":"49735","ELEMENT_SET_NO":"999","OBJECT_ID":"2021-115M","LAUNCH_DATE":"2021-12-02","COUNTRY_CODE":"US","FILE":"3627579","CLASSIFICATION_TYPE":"U","EPOCH":"2022-10-21T08:11:04.235136","MEAN_MOTION_DDOT":"0.0000000000000","REF_FRAME":"TEME","GP_ID":"215777610","OBJECT_TYPE":"PAYLOAD","RA_OF_ASC_NODE":"304.8130","PERIOD":"95.437","MEAN_ELEMENT_THEORY":"SGP4","RCS_SIZE":"LARGE","EPHEMERIS_TYPE":"0","APOAPSIS":"541.116","DECAY_DATE":null,"ARG_OF_PERICENTER":"54.8053","OBJECT_NAME":"STARLINK-3113","BSTAR":"0.00002853400000","TLE_LINE1":"1 49735U 21115M   22294.34102124  .00000166  00000-0  28534-4 0  9993","MEAN_ANOMALY":"305.3126"},{"GP_ID":"215843660","OBJECT_TYPE":"PAYLOAD","RA_OF_ASC_NODE":"293.2407","REF_FRAME":"TEME","CLASSIFICATION_TYPE":"U","EPOCH":"2022-10-21T16:41:08.196000","MEAN_MOTION_DDOT":"0.0000000000000","FILE":"3628413","BSTAR":"0.00008251300000","MEAN_ANOMALY":"321.4142","TLE_LINE1":"1 49736U 21115N   22294.69523375  .00001025  00000-0  82513-4 0  9999","ARG_OF_PERICENTER":"38.7023","OBJECT_NAME":"STARLINK-3148","EPHEMERIS_TYPE":"0","RCS_SIZE":"LARGE","DECAY_DATE":null,"APOAPSIS":"541.422","PERIOD":"95.438","MEAN_ELEMENT_THEORY":"SGP4","REV_AT_EPOCH":"4909","TLE_LINE2":"2 49736  53.2158 293.2407 0002427  38.7023 321.4142 15.08840778 49097","CENTER_NAME":"EARTH","MEAN_MOTION_DOT":"0.00001025","TIME_SYSTEM":"UTC","MEAN_MOTION":"15.08840778","PERIAPSIS":"538.064","SEMIMAJOR_AXIS":"6917.878","OBJECT_ID":"2021-115N","LAUNCH_DATE":"2021-12-02","COUNTRY_CODE":"US","ECCENTRICITY":"0.00024270","SITE":"AFETR","ELEMENT_SET_NO":"999","NORAD_CAT_ID":"49736","INCLINATION":"53.2158"},{"REV_AT_EPOCH":"4909","TLE_LINE2":"2 49737  53.2169 293.2501 0002236  45.0414 315.0760 15.08843389 49094","CENTER_NAME":"EARTH","MEAN_MOTION_DOT":"0.00001592","TIME_SYSTEM":"UTC","PERIAPSIS":"538.188","SEMIMAJOR_AXIS":"6917.870","MEAN_MOTION":"15.08843389","OBJECT_ID":"2021-115P","LAUNCH_DATE":"2021-12-02","COUNTRY_CODE":"US","SITE":"AFETR","ECCENTRICITY":"0.00022360","ELEMENT_SET_NO":"999","NORAD_CAT_ID":"49737","INCLINATION":"53.2169","GP_ID":"215844412","OBJECT_TYPE":"PAYLOAD","RA_OF_ASC_NODE":"293.2501","REF_FRAME":"TEME","CLASSIFICATION_TYPE":"U","EPOCH":"2022-10-21T16:35:48.859872","MEAN_MOTION_DDOT":"0.0000000000000","FILE":"3628413","BSTAR":"0.00011811000000","TLE_LINE1":"1 49737U 21115P   22294.69153773  .00001592  00000-0  11811-3 0  9992","MEAN_ANOMALY":"315.0760","ARG_OF_PERICENTER":"45.0414","OBJECT_NAME":"STARLINK-3225","EPHEMERIS_TYPE":"0","RCS_SIZE":"LARGE","APOAPSIS":"541.282","DECAY_DATE":null,"PERIOD":"95.437","MEAN_ELEMENT_THEORY":"SGP4"},{"FILE":"3628413","CLASSIFICATION_TYPE":"U","EPOCH":"2022-10-21T16:46:25.547520","MEAN_MOTION_DDOT":"0.0000000000000","REF_FRAME":"TEME","GP_ID":"215845162","RA_OF_ASC_NODE":"293.2139","OBJECT_TYPE":"PAYLOAD","PERIOD":"95.438","MEAN_ELEMENT_THEORY":"SGP4","RCS_SIZE":"LARGE","EPHEMERIS_TYPE":"0","DECAY_DATE":null,"APOAPSIS":"541.374","ARG_OF_PERICENTER":"37.2551","OBJECT_NAME":"STARLINK-3143","BSTAR":"0.00004667600000","TLE_LINE1":"1 49738U 21115Q   22294.69890680  .00000455  00000-0  46676-4 0  9993","MEAN_ANOMALY":"322.8604","TIME_SYSTEM":"UTC","PERIAPSIS":"538.135","SEMIMAJOR_AXIS":"6917.889","MEAN_MOTION":"15.08837102","MEAN_MOTION_DOT":"0.00000455","TLE_LINE2":"2 49738  53.2164 293.2139 0002341  37.2551 322.8604 15.08837102 49098","CENTER_NAME":"EARTH","REV_AT_EPOCH":"4909","INCLINATION":"53.2164","SITE":"AFETR","ECCENTRICITY":"0.00023410","NORAD_CAT_ID":"49738","ELEMENT_SET_NO":"999","OBJECT_ID":"2021-115Q","LAUNCH_DATE":"2021-12-02","COUNTRY_CODE":"US"},{"RCS_SIZE":"LARGE","EPHEMERIS_TYPE":"0","APOAPSIS":"541.104","DECAY_DATE":null,"PERIOD":"95.438","MEAN_ELEMENT_THEORY":"SGP4","BSTAR":"0.00007782300000","MEAN_ANOMALY":"327.6691","TLE_LINE1":"1 49739U 21115R   22294.74584361  .00000951  00000-0  77823-4 0  9995","OBJECT_NAME":"STARLINK-3155","ARG_OF_PERICENTER":"32.4422","CLASSIFICATION_TYPE":"U","EPOCH":"2022-10-21T17:54:00.887904","MEAN_MOTION_DDOT":"0.0000000000000","FILE":"3628413","GP_ID":"215843911","OBJECT_TYPE":"PAYLOAD","RA_OF_ASC_NODE":"302.9989","REF_FRAME":"TEME","SITE":"AFETR","ECCENTRICITY":"0.00019660","NORAD_CAT_ID":"49739","ELEMENT_SET_NO":"999","INCLINATION":"53.2186","OBJECT_ID":"2021-115R","LAUNCH_DATE":"2021-12-02","COUNTRY_CODE":"US","MEAN_MOTION_DOT":"0.00000951","TIME_SYSTEM":"UTC","PERIAPSIS":"538.384","MEAN_MOTION":"15.08840399","SEMIMAJOR_AXIS":"6917.879","REV_AT_EPOCH":"4895","TLE_LINE2":"2 49739  53.2186 302.9989 0001966  32.4422 327.6691 15.08840399 48955","CENTER_NAME":"EARTH"},{"REF_FRAME":"TEME","OBJECT_TYPE":"PAYLOAD","RA_OF_ASC_NODE":"292.8619","GP_ID":"215844160","FILE":"3628413","MEAN_MOTION_DDOT":"0.0000000000000","CLASSIFICATION_TYPE":"U","EPOCH":"2022-10-21T18:37:42.735648","OBJECT_NAME":"STARLINK-3226","ARG_OF_PERICENTER":"41.6431","TLE_LINE1":"1 49740U 21115S   22294.77618907  .00000463  00000-0  47237-4 0  9998","MEAN_ANOMALY":"318.4732","BSTAR":"0.00004723700000","MEAN_ELEMENT_THEORY":"SGP4","PERIOD":"95.438","DECAY_DATE":null,"APOAPSIS":"541.313","EPHEMERIS_TYPE":"0","RCS_SIZE":"LARGE","CENTER_NAME":"EARTH","TLE_LINE2":"2 49740  53.2169 292.8619 0002244  41.6431 318.4732 15.08835131 49107","REV_AT_EPOCH":"4910","SEMIMAJOR_AXIS":"6917.895","PERIAPSIS":"538.208","MEAN_MOTION":"15.08835131","TIME_SYSTEM":"UTC","MEAN_MOTION_DOT":"0.00000463","COUNTRY_CODE":"US","LAUNCH_DATE":"2021-12-02","OBJECT_ID":"2021-115S","INCLINATION":"53.2169","ELEMENT_SET_NO":"999","NORAD_CAT_ID":"49740","SITE":"AFETR","ECCENTRICITY":"0.00022440"},{"CENTER_NAME":"EARTH","TLE_LINE2":"2 49741  53.2173 293.1870 0002160  47.0250 313.0923 15.08846963 49098","REV_AT_EPOCH":"4909","SEMIMAJOR_AXIS":"6917.859","PERIAPSIS":"538.230","MEAN_MOTION":"15.08846963","TIME_SYSTEM":"UTC","MEAN_MOTION_DOT":"0.00000603","COUNTRY_CODE":"US","LAUNCH_DATE":"2021-12-02","OBJECT_ID":"2021-115T","INCLINATION":"53.2173","NORAD_CAT_ID":"49741","ELEMENT_SET_NO":"999","SITE":"AFETR","ECCENTRICITY":"0.00021600","REF_FRAME":"TEME","OBJECT_TYPE":"PAYLOAD","RA_OF_ASC_NODE":"293.1870","GP_ID":"215844912","FILE":"3628413","MEAN_MOTION_DDOT":"0.0000000000000","EPOCH":"2022-10-21T16:51:42.473952","CLASSIFICATION_TYPE":"U","ARG_OF_PERICENTER":"47.0250","OBJECT_NAME":"STARLINK-3244","TLE_LINE1":"1 49741U 21115T   22294.70257493  .00000603  00000-0  55994-4 0  9996","MEAN_ANOMALY":"313.0923","BSTAR":"0.00005599400000","MEAN_ELEMENT_THEORY":"SGP4","PERIOD":"95.437","DECAY_DATE":null,"APOAPSIS":"541.218","RCS_SIZE":"LARGE","EPHEMERIS_TYPE":"0"}];
